start=new Date('2023-01-21T00:00:00.000Z').valueOf();
sats=[{"EPHEMERIS_TYPE":"0","COUNTRY_CODE":"US","CENTER_NAME":"EARTH","SEMIMAJOR_AXIS":"6925.356","OBJECT_ID":"2020-073AV","RA_OF_ASC_NODE":"337.6903","PERIOD":"95.592","LAUNCH_DATE":"2020-10-18","RCS_SIZE":"LARGE","APOAPSIS":"548.098","OBJECT_NAME":"STARLINK-1815","REF_FRAME":"TEME","MEAN_ELEMENT_THEORY":"SGP4","NORAD_CAT_ID":"46713","TLE_LINE2":"2 46713  53.0527 337.6903 0001267  96.9328 263.1805 15.06397692125167","OBJECT_TYPE":"PAYLOAD","GP_ID":"223553536","MEAN_ANOMALY":"263.1805","SITE":"AFETR","MEAN_MOTION_DDOT":"0.0000000000000","BSTAR":"-0.00008149800000","PERIAPSIS":"546.343","DECAY_DATE":null,"REV_AT_EPOCH":"12516","FILE":"3756128","ELEMENT_SET_NO":"999","CLASSIFICATION_TYPE":"U","TIME_SYSTEM":"UTC","ARG_OF_PERICENTER":"96.9328","INCLINATION":"53.0527","EPOCH":"2023-01-20T14:08:02.707872","MEAN_MOTION_DOT":"-0.00001495","MEAN_MOTION":"15.06397692","ECCENTRICITY":"0.00012670","TLE_LINE1":"1 46713U 20073AV  23020.58892023 -.00001495  00000-0 -81498-4 0  9992"},{"APOAPSIS":"548.166","OBJECT_NAME":"STARLINK-1816","NORAD_CAT_ID":"46714","TLE_LINE2":"2 46714  53.0554 337.7294 0001349  82.5777 277.5365 15.06394148125165","OBJECT_TYPE":"PAYLOAD","REF_FRAME":"TEME","MEAN_ELEMENT_THEORY":"SGP4","RA_OF_ASC_NODE":"337.7294","CENTER_NAME":"EARTH","OBJECT_ID":"2020-073AW","SEMIMAJOR_AXIS":"6925.366","COUNTRY_CODE":"US","EPHEMERIS_TYPE":"0","LAUNCH_DATE":"2020-10-18","RCS_SIZE":"LARGE","PERIOD":"95.593","MEAN_MOTION_DOT":"0.00017365","EPOCH":"2023-01-20T13:53:29.261760","ARG_OF_PERICENTER":"82.5777","CLASSIFICATION_TYPE":"U","TIME_SYSTEM":"UTC","INCLINATION":"53.0554","TLE_LINE1":"1 46714U 20073AW  23020.57881090  .00017365  00000-0  11820-2 0  9995","ECCENTRICITY":"0.00013490","MEAN_MOTION":"15.06394148","MEAN_MOTION_DDOT":"0.0000000000000","SITE":"AFETR","GP_ID":"223553543","MEAN_ANOMALY":"277.5365","FILE":"3756128","ELEMENT_SET_NO":"999","PERIAPSIS":"546.297","BSTAR":"0.00118200000000","REV_AT_EPOCH":"12516","DECAY_DATE":null},{"MEAN_ELEMENT_THEORY":"SGP4","REF_FRAME":"TEME","OBJECT_TYPE":"PAYLOAD","TLE_LINE2":"2 46715  53.0528 338.9458 0001894  82.3017 277.8187 15.06385895124648","NORAD_CAT_ID":"46715","OBJECT_NAME":"STARLINK-1817","APOAPSIS":"548.568","RCS_SIZE":"LARGE","LAUNCH_DATE":"2020-10-18","PERIOD":"95.593","COUNTRY_CODE":"US","EPHEMERIS_TYPE":"0","RA_OF_ASC_NODE":"338.9458","SEMIMAJOR_AXIS":"6925.392","OBJECT_ID":"2020-073AX","CENTER_NAME":"EARTH","TLE_LINE1":"1 46715U 20073AX  23020.30973512  .00000685  00000-0  64936-4 0  9993","MEAN_MOTION":"15.06385895","ECCENTRICITY":"0.00018940","INCLINATION":"53.0528","CLASSIFICATION_TYPE":"U","TIME_SYSTEM":"UTC","ARG_OF_PERICENTER":"82.3017","MEAN_MOTION_DOT":"0.00000685","EPOCH":"2023-01-20T07:26:01.114368","ELEMENT_SET_NO":"999","FILE":"3755973","DECAY_DATE":null,"REV_AT_EPOCH":"12464","PERIAPSIS":"545.945","BSTAR":"0.00006493600000","MEAN_ANOMALY":"277.8187","GP_ID":"223542826","MEAN_MOTION_DDOT":"0.0000000000000","SITE":"AFETR"},{"PERIOD":"95.592","LAUNCH_DATE":"2020-10-18","RCS_SIZE":"LARGE","OBJECT_ID":"2020-073AY","SEMIMAJOR_AXIS":"6925.336","CENTER_NAME":"EARTH","RA_OF_ASC_NODE":"353.8759","EPHEMERIS_TYPE":"0","COUNTRY_CODE":"US","TLE_LINE2":"2 46716  53.0550 353.8759 0002093  95.4171 264.7057 15.06404143124438","OBJECT_TYPE":"PAYLOAD","NORAD_CAT_ID":"46716","MEAN_ELEMENT_THEORY":"SGP4","REF_FRAME":"TEME","OBJECT_NAME":"STARLINK-1818","APOAPSIS":"548.650","REV_AT_EPOCH":"12443","DECAY_DATE":null,"BSTAR":"0.00195280000000","PERIAPSIS":"545.751","ELEMENT_SET_NO":"999","FILE":"3755973","SITE":"AFETR","MEAN_MOTION_DDOT":"0.0000000000000","MEAN_ANOMALY":"264.7057","GP_ID":"223543574","ECCENTRICITY":"0.00020930","MEAN_MOTION":"15.06404143","TLE_LINE1":"1 46716U 20073AY  23020.32494158  .00028929  00000-0  19528-2 0  9996","EPOCH":"2023-01-20T07:47:54.952512","MEAN_MOTION_DOT":"0.00028929","INCLINATION":"53.0550","CLASSIFICATION_TYPE":"U","TIME_SYSTEM":"UTC","ARG_OF_PERICENTER":"95.4171"},{"RCS_SIZE":"LARGE","LAUNCH_DATE":"2020-10-18","PERIOD":"95.593","RA_OF_ASC_NODE":"337.6738","OBJECT_ID":"2020-073AZ","SEMIMAJOR_AXIS":"6925.388","CENTER_NAME":"EARTH","COUNTRY_CODE":"US","EPHEMERIS_TYPE":"0","TLE_LINE2":"2 46717  53.0539 337.6738 0001383  90.1072 270.0076 15.06387220125164","OBJECT_TYPE":"PAYLOAD","NORAD_CAT_ID":"46717","MEAN_ELEMENT_THEORY":"SGP4","REF_FRAME":"TEME","OBJECT_NAME":"STARLINK-1820","APOAPSIS":"548.211","ELEMENT_SET_NO":"999","FILE":"3756128","DECAY_DATE":null,"REV_AT_EPOCH":"12516","PERIAPSIS":"546.295","BSTAR":"0.00047924000000","MEAN_MOTION_DDOT":"0.0000000000000","SITE":"AFETR","MEAN_ANOMALY":"270.0076","GP_ID":"223553532","TLE_LINE1":"1 46717U 20073AZ  23020.59355462  .00006861  00000-0  47924-3 0  9993","MEAN_MOTION":"15.06387220","ECCENTRICITY":"0.00013830","MEAN_MOTION_DOT":"0.00006861","EPOCH":"2023-01-20T14:14:43.119168","INCLINATION":"53.0539","CLASSIFICATION_TYPE":"U","ARG_OF_PERICENTER":"90.1072","TIME_SYSTEM":"UTC"},{"TLE_LINE1":"1 46718U 20073BA  23020.63361228  .00017861  00000-0  12150-2 0  9990","MEAN_MOTION":"15.06397168","ECCENTRICITY":"0.00013880","INCLINATION":"53.0520","CLASSIFICATION_TYPE":"U","ARG_OF_PERICENTER":"101.4226","TIME_SYSTEM":"UTC","MEAN_MOTION_DOT":"0.00017861","EPOCH":"2023-01-20T15:12:24.100992","ELEMENT_SET_NO":"999","FILE":"3756128","DECAY_DATE":null,"REV_AT_EPOCH":"12496","PERIAPSIS":"546.261","BSTAR":"0.00121500000000","MEAN_ANOMALY":"258.6919","GP_ID":"223553819","MEAN_MOTION_DDOT":"0.0000000000000","SITE":"AFETR","MEAN_ELEMENT_THEORY":"SGP4","REF_FRAME":"TEME","TLE_LINE2":"2 46718  53.0520 352.4862 0001388 101.4226 258.6919 15.06397168124967","OBJECT_TYPE":"PAYLOAD","NORAD_CAT_ID":"46718","OBJECT_NAME":"STARLINK-1821","APOAPSIS":"548.183","LAUNCH_DATE":"2020-10-18","RCS_SIZE":"LARGE","PERIOD":"95.592","COUNTRY_CODE":"US","EPHEMERIS_TYPE":"0","RA_OF_ASC_NODE":"352.4862","SEMIMAJOR_AXIS":"6925.357","OBJECT_ID":"2020-073BA","CENTER_NAME":"EARTH"},{"EPOCH":"2023-01-20T13:13:40.623168","MEAN_MOTION_DOT":"0.00008746","INCLINATION":"53.0530","CLASSIFICATION_TYPE":"U","ARG_OF_PERICENTER":"104.9236","TIME_SYSTEM":"UTC","ECCENTRICITY":"0.00019540","MEAN_MOTION":"15.06390307","TLE_LINE1":"1 46719U 20073BB  23020.55116462  .00008746  00000-0  60545-3 0  9994","SITE":"AFETR","MEAN_MOTION_DDOT":"0.0000000000000","MEAN_ANOMALY":"255.1970","GP_ID":"223553548","REV_AT_EPOCH":"12544","DECAY_DATE":null,"BSTAR":"0.00060545000000","PERIAPSIS":"545.890","ELEMENT_SET_NO":"999","FILE":"3756129","OBJECT_NAME":"STARLINK-1822","APOAPSIS":"548.596","OBJECT_TYPE":"PAYLOAD","TLE_LINE2":"2 46719  53.0530 317.8597 0001954 104.9236 255.1970 15.06390307125448","NORAD_CAT_ID":"46719","MEAN_ELEMENT_THEORY":"SGP4","REF_FRAME":"TEME","SEMIMAJOR_AXIS":"6925.378","OBJECT_ID":"2020-073BB","CENTER_NAME":"EARTH","RA_OF_ASC_NODE":"317.8597","EPHEMERIS_TYPE":"0","COUNTRY_CODE":"US","PERIOD":"95.593","LAUNCH_DATE":"2020-10-18","RCS_SIZE":"LARGE"},{"ECCENTRICITY":"0.00017510","MEAN_MOTION":"15.06389083","TLE_LINE1":"1 46722U 20073BE  23020.32862755  .00023327  00000-0  15802-2 0  9993","EPOCH":"2023-01-20T07:53:13.420320","MEAN_MOTION_DOT":"0.00023327","INCLINATION":"53.0529","CLASSIFICATION_TYPE":"U","ARG_OF_PERICENTER":"85.9315","TIME_SYSTEM":"UTC","REV_AT_EPOCH":"12443","DECAY_DATE":null,"BSTAR":"0.00158020000000","PERIAPSIS":"546.034","ELEMENT_SET_NO":"999","FILE":"3755973","SITE":"AFETR","MEAN_MOTION_DDOT":"0.0000000000000","MEAN_ANOMALY":"274.1874","GP_ID":"223543076","OBJECT_TYPE":"PAYLOAD","TLE_LINE2":"2 46722  53.0529 353.8632 0001751  85.9315 274.1874 15.06389083124432","NORAD_CAT_ID":"46722","MEAN_ELEMENT_THEORY":"SGP4","REF_FRAME":"TEME","OBJECT_NAME":"STARLINK-1825","APOAPSIS":"548.460","PERIOD":"95.593","RCS_SIZE":"LARGE","LAUNCH_DATE":"2020-10-18","OBJECT_ID":"2020-073BE","SEMIMAJOR_AXIS":"6925.382","CENTER_NAME":"EARTH","RA_OF_ASC_NODE":"353.8632","EPHEMERIS_TYPE":"0","COUNTRY_CODE":"US"},{"COUNTRY_CODE":"US","EPHEMERIS_TYPE":"0","RA_OF_ASC_NODE":"311.6671","CENTER_NAME":"EARTH","OBJECT_ID":"2020-073BF","SEMIMAJOR_AXIS":"6925.378","RCS_SIZE":"LARGE","LAUNCH_DATE":"2020-10-18","PERIOD":"95.593","APOAPSIS":"548.414","OBJECT_NAME":"STARLINK-1826","REF_FRAME":"TEME","MEAN_ELEMENT_THEORY":"SGP4","NORAD_CAT_ID":"46723","OBJECT_TYPE":"PAYLOAD","TLE_LINE2":"2 46723  53.0481 311.6671 0001691  78.9082 281.2097 15.06390407125553","GP_ID":"223553549","MEAN_ANOMALY":"281.2097","MEAN_MOTION_DDOT":"0.0000000000000","SITE":"AFETR","FILE":"3756129","ELEMENT_SET_NO":"999","BSTAR":"0.00023172000000","PERIAPSIS":"546.072","REV_AT_EPOCH":"12555","DECAY_DATE":null,"ARG_OF_PERICENTER":"78.9082","CLASSIFICATION_TYPE":"U","TIME_SYSTEM":"UTC","INCLINATION":"53.0481","MEAN_MOTION_DOT":"0.00003171","EPOCH":"2023-01-20T19:39:08.884512","TLE_LINE1":"1 46723U 20073BF  23020.81885283  .00003171  00000-0  23172-3 0  9994","MEAN_MOTION":"15.06390407","ECCENTRICITY":"0.00016910"},{"TLE_LINE1":"1 46725U 20073BH  23020.42447667  .00005081  00000-0  36006-3 0  9995","ECCENTRICITY":"0.00014050","MEAN_MOTION":"15.06369828","ARG_OF_PERICENTER":"75.2091","CLASSIFICATION_TYPE":"U","TIME_SYSTEM":"UTC","INCLINATION":"53.0539","MEAN_MOTION_DOT":"0.00005081","EPOCH":"2023-01-20T10:11:14.784288","FILE":"3755973","ELEMENT_SET_NO":"999","BSTAR":"0.00036006000000","PERIAPSIS":"546.333","DECAY_DATE":null,"REV_AT_EPOCH":"12445","GP_ID":"223544575","MEAN_ANOMALY":"284.9053","MEAN_MOTION_DDOT":"0.0000000000000","SITE":"AFETR","REF_FRAME":"TEME","MEAN_ELEMENT_THEORY":"SGP4","NORAD_CAT_ID":"46725","OBJECT_TYPE":"PAYLOAD","TLE_LINE2":"2 46725  53.0539 353.4301 0001405  75.2091 284.9053 15.06369828124459","APOAPSIS":"548.279","OBJECT_NAME":"STARLINK-1828","LAUNCH_DATE":"2020-10-18","RCS_SIZE":"LARGE","PERIOD":"95.594","COUNTRY_CODE":"US","EPHEMERIS_TYPE":"0","RA_OF_ASC_NODE":"353.4301","CENTER_NAME":"EARTH","SEMIMAJOR_AXIS":"6925.441","OBJECT_ID":"2020-073BH"}];
